1 43013U 17073A   26134.87265991  .00000028  00000+0  34335-4 0  9993
2 43013  98.7762  74.6340 0001456  48.6041 311.5260 14.19505123439741
